IRIDIUM 116             
1 43072U 17083C   25273.53656420  .00000160  00000+0  50011-4 0  9992
2 43072  86.3921  70.5366 0002022  83.7330 276.4096 14.34220651406950
IRIDIUM 130             
1 43073U 17083D   25272.52809162  .00000034  00000+0  49293-5 0  9995
2 43073  86.3929  71.2090 0002295  82.8890 277.2567 14.34217863406755
IRIDIUM 151             
1 43074U 17083E   25273.47948000  .00000019  00000+0 -16469-6 0  9990
2 43074  86.3923  70.6129 0001884  83.4493 276.6918 14.34217454406912
IRIDIUM 134             
1 43075U 17083F   25273.51753579 -.00000002  00000+0 -77793-5 0  9990
2 43075  86.3924  70.6014 0002227  85.3337 274.8113 14.34217666406885
IRIDIUM 137             
1 43076U 17083G   25273.53022024  .00000020  00000+0  52666-7 0  9999
2 43076  86.3927  70.6837 0001524  76.0851 284.0515 14.34217512406956
IRIDIUM 141             
1 43077U 17083H   25273.52387625  .00000183  00000+0  58387-4 0  9993
2 43077  86.3921  70.5313 0002035  93.4427 266.7002 14.34219082406951
IRIDIUM 153             
1 43078U 17083J   25273.40628919  .00000251  00000+0  82524-4 0  9991
2 43078  86.3985  39.0483 0002319 101.0543 259.0914 14.34218754408044
IRIDIUM 131             
1 43079U 17083K   25273.44142465  .00000001  00000+0 -67662-5 0  9994
2 43079  86.3926  70.7349 0001851  94.2826 265.8582 14.34217571406871
